{
  "type": "FeatureCollection",
  "features": [
    {
      "type": "Feature",
      "properties": {
        "norad_id": 66555,
        "name": "ELECTRON KICK STAGE R/B",
        "group": "last-30-days",
        "lat": -15.791018231330582,
        "lon": 40.94471865091925,
        "alt_km": 467.64559071588974,
        "timestamp": "2025-12-12T07:43:19.257891+00:00",
        "meta_object_name": "ELECTRON KICK STAGE R/B",
        "meta_object_id": "2025-267B",
        "meta_epoch": "2025-12-11T14:37:24.915360",
        "meta_mean_motion": 15.32723055,
        "meta_eccentricity": 0.00065972,
        "meta_inclination": 42.0196,
        "meta_ra_of_asc_node": 63.3722,
        "meta_arg_of_pericenter": 43.8355,
        "meta_mean_anomaly": 316.3006,
        "meta_ephemeris_type": 0,
        "meta_classification_type": "U",
        "meta_norad_cat_id": 66555,
        "meta_element_set_no": 999,
        "meta_rev_at_epoch": 323,
        "meta_bstar": 0.0011433379,
        "meta_mean_motion_dot": 0.00036872,
        "meta_mean_motion_ddot": 0,
        "tle_line1": "1 66555U 25267B   25345.60931615  .00036872  00000+0  11433-2 0  9998",
        "tle_line2": "2 66555  42.0196  63.3722 0006597  43.8355 316.3006 15.32723055  3239"
      },
      "geometry": {
        "type": "Point",
        "coordinates": [
          40.94471865091925,
          -15.791018231330582
        ]
      }
    },
    {
      "type": "Feature",
      "properties": {
        "norad_id": 66557,
        "name": "STARLINK-35699",
        "group": "last-30-days",
        "lat": -41.690293141640474,
        "lon": 50.74204860139997,
        "alt_km": 417.66759215930324,
        "timestamp": "2025-12-12T07:43:19.257902+00:00",
        "meta_object_name": "STARLINK-35699",
        "meta_object_id": "2025-268A",
        "meta_epoch": "2025-12-11T20:00:01.999872",
        "meta_mean_motion": 15.50767275,
        "meta_eccentricity": 0.00017196,
        "meta_inclination": 43,
        "meta_ra_of_asc_node": 126.5015,
        "meta_arg_of_pericenter": 265.8621,
        "meta_mean_anomaly": 167.2896,
        "meta_ephemeris_type": 0,
        "meta_classification_type": "U",
        "meta_norad_cat_id": 66557,
        "meta_element_set_no": 999,
        "meta_rev_at_epoch": 452,
        "meta_bstar": -0.0061498174,
        "meta_mean_motion_dot": -0.00347904,
        "meta_mean_motion_ddot": 0,
        "tle_line1": "1 66557U 25268A   25345.83335648 -.00347904  00000+0 -61498-2 0  9999",
        "tle_line2": "2 66557  43.0000 126.5015 0001719 265.8621 167.2896 15.50767275  4521"
      },
      "geometry": {
        "type": "Point",
        "coordinates": [
          50.74204860139997,
          -41.690293141640474
        ]
      }
    },
    {
      "type": "Feature",
      "properties": {
        "norad_id": 66558,
        "name": "STARLINK-35695",
        "group": "last-30-days",
        "lat": -41.29984043122029,
        "lon": 53.117780104854646,
        "alt_km": 416.0787314989757,
        "timestamp": "2025-12-12T07:43:19.257913+00:00",
        "meta_object_name": "STARLINK-35695",
        "meta_object_id": "2025-268B",
        "meta_epoch": "2025-12-11T20:00:01.999872",
        "meta_mean_motion": 15.50631225,
        "meta_eccentricity": 0.00035925,
        "meta_inclination": 43,
        "meta_ra_of_asc_node": 126.4969,
        "meta_arg_of_pericenter": 268.3272,
        "meta_mean_anomaly": 166.663,
        "meta_ephemeris_type": 0,
        "meta_classification_type": "U",
        "meta_norad_cat_id": 66558,
        "meta_element_set_no": 999,
        "meta_rev_at_epoch": 452,
        "meta_bstar": -0.0017018316,
        "meta_mean_motion_dot": -0.0009914,
        "meta_mean_motion_ddot": 0,
        "tle_line1": "1 66558U 25268B   25345.83335648 -.00099140  00000+0 -17018-2 0  9995",
        "tle_line2": "2 66558  43.0000 126.4969 0003592 268.3272 166.6630 15.50631225  4524"
      },
      "geometry": {
        "type": "Point",
        "coordinates": [
          53.117780104854646,
          -41.29984043122029
        ]
      }
    },
    {
      "type": "Feature",
      "properties": {
        "norad_id": 66559,
        "name": "STARLINK-35419",
        "group": "last-30-days",
        "lat": -40.838167166118204,
        "lon": 55.57844401554459,
        "alt_km": 416.98247341289607,
        "timestamp": "2025-12-12T07:43:19.257923+00:00",
        "meta_object_name": "STARLINK-35419",
        "meta_object_id": "2025-268C",
        "meta_epoch": "2025-12-11T20:00:01.999872",
        "meta_mean_motion": 15.50501643,
        "meta_eccentricity": 0.00016926,
        "meta_inclination": 42.9999,
        "meta_ra_of_asc_node": 126.4931,
        "meta_arg_of_pericenter": 276.9047,
        "meta_mean_anomaly": 160.024,
        "meta_ephemeris_type": 0,
        "meta_classification_type": "U",
        "meta_norad_cat_id": 66559,
        "meta_element_set_no": 999,
        "meta_rev_at_epoch": 452,
        "meta_bstar": 0.0025549771,
        "meta_mean_motion_dot": 0.00152075,
        "meta_mean_motion_ddot": 0,
        "tle_line1": "1 66559U 25268C   25345.83335648  .00152075  00000+0  25550-2 0  9991",
        "tle_line2": "2 66559  42.9999 126.4931 0001692 276.9047 160.0240 15.50501643  4528"
      },
      "geometry": {
        "type": "Point",
        "coordinates": [
          55.57844401554459,
          -40.838167166118204
        ]
      }
    },
    {
      "type": "Feature",
      "properties": {
        "norad_id": 66560,
        "name": "STARLINK-35411",
        "group": "last-30-days",
        "lat": -40.34022203343547,
        "lon": 57.93421670864174,
        "alt_km": 416.76654613298524,
        "timestamp": "2025-12-12T07:43:19.257935+00:00",
        "meta_object_name": "STARLINK-35411",
        "meta_object_id": "2025-268D",
        "meta_epoch": "2025-12-11T20:00:01.999872",
        "meta_mean_motion": 15.50504021,
        "meta_eccentricity": 0.00019987,
        "meta_inclination": 43,
        "meta_ra_of_asc_node": 126.4886,
        "meta_arg_of_pericenter": 274.2426,
        "meta_mean_anomaly": 164.5437,
        "meta_ephemeris_type": 0,
        "meta_classification_type": "U",
        "meta_norad_cat_id": 66560,
        "meta_element_set_no": 999,
        "meta_rev_at_epoch": 452,
        "meta_bstar": 0.0025371922,
        "meta_mean_motion_dot": 0.00151007,
        "meta_mean_motion_ddot": 0,
        "tle_line1": "1 66560U 25268D   25345.83335648  .00151007  00000+0  25372-2 0  9999",
        "tle_line2": "2 66560  43.0000 126.4886 0001998 274.2426 164.5437 15.50504021  4525"
      },
      "geometry": {
        "type": "Point",
        "coordinates": [
          57.93421670864174,
          -40.34022203343547
        ]
      }
    },
    {
      "type": "Feature",
      "properties": {
        "norad_id": 66561,
        "name": "STARLINK-35305",
        "group": "last-30-days",
        "lat": -39.14975407738593,
        "lon": 62.734275936125954,
        "alt_km": 417.4437116134668,
        "timestamp": "2025-12-12T07:43:19.257945+00:00",
        "meta_object_name": "STARLINK-35305",
        "meta_object_id": "2025-268E",
        "meta_epoch": "2025-12-11T20:00:01.999872",
        "meta_mean_motion": 15.50544438,
        "meta_eccentricity": 0.00013961,
        "meta_inclination": 43,
        "meta_ra_of_asc_node": 126.4786,
        "meta_arg_of_pericenter": 273.6808,
        "meta_mean_anomaly": 169.058,
        "meta_ephemeris_type": 0,
        "meta_classification_type": "U",
        "meta_norad_cat_id": 66561,
        "meta_element_set_no": 999,
        "meta_rev_at_epoch": 447,
        "meta_bstar": -0.00011100955,
        "meta_mean_motion_dot": -6.84e-05,
        "meta_mean_motion_ddot": 0,
        "tle_line1": "1 66561U 25268E   25345.83335648 -.00006840  00000+0 -11101-3 0  9992",
        "tle_line2": "2 66561  43.0000 126.4786 0001396 273.6808 169.0580 15.50544438  4473"
      },
      "geometry": {
        "type": "Point",
        "coordinates": [
          62.734275936125954,
          -39.14975407738593
        ]
      }
    },
    {
      "type": "Feature",
      "properties": {
        "norad_id": 66562,
        "name": "STARLINK-35579",
        "group": "last-30-days",
        "lat": -39.76161876127323,
        "lon": 60.38817799173662,
        "alt_km": 417.34625244913695,
        "timestamp": "2025-12-12T07:43:19.257955+00:00",
        "meta_object_name": "STARLINK-35579",
        "meta_object_id": "2025-268F",
        "meta_epoch": "2025-12-11T20:00:01.999872",
        "meta_mean_motion": 15.50526948,
        "meta_eccentricity": 0.00015159,
        "meta_inclination": 43.0002,
        "meta_ra_of_asc_node": 126.4828,
        "meta_arg_of_pericenter": 273.2185,
        "meta_mean_anomaly": 167.605,
        "meta_ephemeris_type": 0,
        "meta_classification_type": "U",
        "meta_norad_cat_id": 66562,
        "meta_element_set_no": 999,
        "meta_rev_at_epoch": 452,
        "meta_bstar": 0.00045334355,
        "meta_mean_motion_dot": 0.00026294,
        "meta_mean_motion_ddot": 0,
        "tle_line1": "1 66562U 25268F   25345.83335648  .00026294  00000+0  45334-3 0  9991",
        "tle_line2": "2 66562  43.0002 126.4828 0001515 273.2185 167.6050 15.50526948  4528"
      },
      "geometry": {
        "type": "Point",
        "coordinates": [
          60.38817799173662,
          -39.76161876127323
        ]
      }
    }
  ]
}